FLOCK 4G-34             
1 62650U 25009AT  26117.46326440  .00012845  00000+0  46900-3 0  9992
2 62650  97.3967 199.3769 0003432 119.4834 240.6749 15.28247168 71169
FLOCK 4G-21             
1 62651U 25009AU  26117.47402412  .00014254  00000+0  49942-3 0  9993
2 62651  97.3997 200.1484 0003256 120.7619 239.3942 15.29576623 71205
FLOCK 4G-31             
1 62652U 25009AV  26117.48343147  .00011325  00000+0  41599-3 0  9990
2 62652  97.3975 199.3857 0003090 121.8808 238.2732 15.28082437 71167
FLOCK 4G-4              
1 62659U 25009BC  26117.49618668  .00012706  00000+0  46962-3 0  9994
2 62659  97.3956 199.1366 0003953 128.8452 231.3141 15.27847451128767
FLOCK 4G-6              
1 62660U 25009BD  26116.77628570  .00012642  00000+0  45687-3 0  9991
2 62660  97.3947 198.5079 0004647 139.9403 220.2180 15.28584854128646
FLOCK 4G-2              
1 62661U 25009BE  26117.17824384  .00014020  00000+0  50226-3 0  9995
2 62661  97.4012 199.4435 0005474 135.7165 224.4514 15.28846165128738
FLOCK 4G-5              
1 62663U 25009BG  26117.53403257  .00010374  00000+0  36394-3 0  9997
2 62663  97.4028 200.1007 0004877 120.6582 239.5139 15.29609980 71194
FLOCK 4G-1              
1 62666U 25009BK  26117.48022771  .00011433  00000+0  41334-3 0  9999
2 62666  97.4028 199.7311 0005690 133.5279 226.6434 15.28594173 71166
FLOCK 4G-14             
1 62667U 25009BL  26117.48966843  .00012283  00000+0  44885-3 0  9995
2 62667  97.4030 199.5858 0005918 128.5631 231.6140 15.28223527 71154
FLOCK 4G-10             
1 62670U 25009BP  26117.50425718  .00011340  00000+0  41423-3 0  9991
2 62670  97.3931 198.9932 0005732 142.4862 217.6779 15.28255077128798
FLOCK 4G-36             
1 62675U 25009BU  26116.78026936  .00013037  00000+0  47444-3 0  9998
2 62675  97.4016 198.8011 0006090 134.7943 225.3793 15.28343096 71043
FLOCK 4G-15             
1 62678U 25009BX  26117.18274293  .00013996  00000+0  50869-3 0  9996
2 62678  97.4019 199.3351 0006240 131.0855 229.0925 15.28367436128754
FLOCK 4G-30             
1 62679U 25009BY  26116.71494629  .00046468  00000+0  16633-2 0  9992
2 62679  97.3931 198.2324 0005449 148.6481 211.5084 15.28610033128671
FLOCK 4G-18             
1 62680U 25009BZ  26117.18053597  .00013864  00000+0  50428-3 0  9996
2 62680  97.4018 199.1617 0006523 141.2450 218.9259 15.28340842128745
FLOCK 4G-17             
1 62681U 25009CA  26117.47949347  .00013102  00000+0  47438-3 0  9998
2 62681  97.3931 199.1776 0005933 143.2334 216.9314 15.28508541128801
FLOCK 4G-33             
1 62685U 25009CE  26117.46675094  .00007610  00000+0  30901-3 0  9990
2 62685  97.3951 197.9425 0006835 138.8471 221.3283 15.24845535 71072
