[{"OBJECT_NAME":"FLOCK 4G-34","OBJECT_ID":"2025-009AT","EPOCH":"2026-04-27T11:07:06.044160","MEAN_MOTION":15.28247168,"ECCENTRICITY":0.0003432,"INCLINATION":97.3967,"RA_OF_ASC_NODE":199.3769,"ARG_OF_PERICENTER":119.4834,"MEAN_ANOMALY":240.6749,"EPHEMERIS_TYPE":0,"CLASSIFICATION_TYPE":"U","NORAD_CAT_ID":62650,"ELEMENT_SET_NO":999,"REV_AT_EPOCH":7116,"BSTAR":0.000469,"MEAN_MOTION_DOT":0.00012845,"MEAN_MOTION_DDOT":0},{"OBJECT_NAME":"FLOCK 4G-21","OBJECT_ID":"2025-009AU","EPOCH":"2026-04-27T11:22:35.683968","MEAN_MOTION":15.29576623,"ECCENTRICITY":0.0003256,"INCLINATION":97.3997,"RA_OF_ASC_NODE":200.1484,"ARG_OF_PERICENTER":120.7619,"MEAN_ANOMALY":239.3942,"EPHEMERIS_TYPE":0,"CLASSIFICATION_TYPE":"U","NORAD_CAT_ID":62651,"ELEMENT_SET_NO":999,"REV_AT_EPOCH":7120,"BSTAR":0.00049942,"MEAN_MOTION_DOT":0.00014254,"MEAN_MOTION_DDOT":0},{"OBJECT_NAME":"FLOCK 4G-31","OBJECT_ID":"2025-009AV","EPOCH":"2026-04-27T11:36:08.479008","MEAN_MOTION":15.28082437,"ECCENTRICITY":0.000309,"INCLINATION":97.3975,"RA_OF_ASC_NODE":199.3857,"ARG_OF_PERICENTER":121.8808,"MEAN_ANOMALY":238.2732,"EPHEMERIS_TYPE":0,"CLASSIFICATION_TYPE":"U","NORAD_CAT_ID":62652,"ELEMENT_SET_NO":999,"REV_AT_EPOCH":7116,"BSTAR":0.00041599,"MEAN_MOTION_DOT":0.00011325,"MEAN_MOTION_DDOT":0},{"OBJECT_NAME":"FLOCK 4G-4","OBJECT_ID":"2025-009BC","EPOCH":"2026-04-27T11:54:30.529152","MEAN_MOTION":15.27847451,"ECCENTRICITY":0.0003953,"INCLINATION":97.3956,"RA_OF_ASC_NODE":199.1366,"ARG_OF_PERICENTER":128.8452,"MEAN_ANOMALY":231.3141,"EPHEMERIS_TYPE":0,"CLASSIFICATION_TYPE":"U","NORAD_CAT_ID":62659,"ELEMENT_SET_NO":999,"REV_AT_EPOCH":12876,"BSTAR":0.00046962,"MEAN_MOTION_DOT":0.00012706,"MEAN_MOTION_DDOT":0},{"OBJECT_NAME":"FLOCK 4G-6","OBJECT_ID":"2025-009BD","EPOCH":"2026-04-26T18:37:51.084480","MEAN_MOTION":15.28584854,"ECCENTRICITY":0.00046471,"INCLINATION":97.3947,"RA_OF_ASC_NODE":198.5079,"ARG_OF_PERICENTER":139.9403,"MEAN_ANOMALY":220.218,"EPHEMERIS_TYPE":0,"CLASSIFICATION_TYPE":"U","NORAD_CAT_ID":62660,"ELEMENT_SET_NO":999,"REV_AT_EPOCH":12864,"BSTAR":0.00045687379,"MEAN_MOTION_DOT":0.00012642,"MEAN_MOTION_DDOT":0},{"OBJECT_NAME":"FLOCK 4G-2","OBJECT_ID":"2025-009BE","EPOCH":"2026-04-27T04:16:40.267776","MEAN_MOTION":15.28846165,"ECCENTRICITY":0.00054748,"INCLINATION":97.4012,"RA_OF_ASC_NODE":199.4435,"ARG_OF_PERICENTER":135.7165,"MEAN_ANOMALY":224.4514,"EPHEMERIS_TYPE":0,"CLASSIFICATION_TYPE":"U","NORAD_CAT_ID":62661,"ELEMENT_SET_NO":999,"REV_AT_EPOCH":12873,"BSTAR":0.00050225535,"MEAN_MOTION_DOT":0.0001402,"MEAN_MOTION_DDOT":0},{"OBJECT_NAME":"FLOCK 4G-5","OBJECT_ID":"2025-009BG","EPOCH":"2026-04-27T12:49:00.414048","MEAN_MOTION":15.2960998,"ECCENTRICITY":0.0004877,"INCLINATION":97.4028,"RA_OF_ASC_NODE":200.1007,"ARG_OF_PERICENTER":120.6582,"MEAN_ANOMALY":239.5139,"EPHEMERIS_TYPE":0,"CLASSIFICATION_TYPE":"U","NORAD_CAT_ID":62663,"ELEMENT_SET_NO":999,"REV_AT_EPOCH":7119,"BSTAR":0.00036394,"MEAN_MOTION_DOT":0.00010374,"MEAN_MOTION_DDOT":0},{"OBJECT_NAME":"FLOCK 4G-1","OBJECT_ID":"2025-009BK","EPOCH":"2026-04-27T11:31:31.674144","MEAN_MOTION":15.28594173,"ECCENTRICITY":0.000569,"INCLINATION":97.4028,"RA_OF_ASC_NODE":199.7311,"ARG_OF_PERICENTER":133.5279,"MEAN_ANOMALY":226.6434,"EPHEMERIS_TYPE":0,"CLASSIFICATION_TYPE":"U","NORAD_CAT_ID":62666,"ELEMENT_SET_NO":999,"REV_AT_EPOCH":7116,"BSTAR":0.00041334,"MEAN_MOTION_DOT":0.00011433,"MEAN_MOTION_DDOT":0},{"OBJECT_NAME":"FLOCK 4G-14","OBJECT_ID":"2025-009BL","EPOCH":"2026-04-27T11:45:07.352352","MEAN_MOTION":15.28223527,"ECCENTRICITY":0.0005918,"INCLINATION":97.403,"RA_OF_ASC_NODE":199.5858,"ARG_OF_PERICENTER":128.5631,"MEAN_ANOMALY":231.614,"EPHEMERIS_TYPE":0,"CLASSIFICATION_TYPE":"U","NORAD_CAT_ID":62667,"ELEMENT_SET_NO":999,"REV_AT_EPOCH":7115,"BSTAR":0.00044885,"MEAN_MOTION_DOT":0.00012283,"MEAN_MOTION_DDOT":0},{"OBJECT_NAME":"FLOCK 4G-10","OBJECT_ID":"2025-009BP","EPOCH":"2026-04-27T12:06:07.820352","MEAN_MOTION":15.28255077,"ECCENTRICITY":0.0005732,"INCLINATION":97.3931,"RA_OF_ASC_NODE":198.9932,"ARG_OF_PERICENTER":142.4862,"MEAN_ANOMALY":217.6779,"EPHEMERIS_TYPE":0,"CLASSIFICATION_TYPE":"U","NORAD_CAT_ID":62670,"ELEMENT_SET_NO":999,"REV_AT_EPOCH":12879,"BSTAR":0.00041423,"MEAN_MOTION_DOT":0.0001134,"MEAN_MOTION_DDOT":0},{"OBJECT_NAME":"FLOCK 4G-36","OBJECT_ID":"2025-009BU","EPOCH":"2026-04-26T18:43:35.272704","MEAN_MOTION":15.28343096,"ECCENTRICITY":0.00060909,"INCLINATION":97.4016,"RA_OF_ASC_NODE":198.8011,"ARG_OF_PERICENTER":134.7943,"MEAN_ANOMALY":225.3793,"EPHEMERIS_TYPE":0,"CLASSIFICATION_TYPE":"U","NORAD_CAT_ID":62675,"ELEMENT_SET_NO":999,"REV_AT_EPOCH":7104,"BSTAR":0.000474444,"MEAN_MOTION_DOT":0.00013037,"MEAN_MOTION_DDOT":0},{"OBJECT_NAME":"FLOCK 4G-15","OBJECT_ID":"2025-009BX","EPOCH":"2026-04-27T04:23:08.989152","MEAN_MOTION":15.28367436,"ECCENTRICITY":0.00062405,"INCLINATION":97.4019,"RA_OF_ASC_NODE":199.3351,"ARG_OF_PERICENTER":131.0855,"MEAN_ANOMALY":229.0925,"EPHEMERIS_TYPE":0,"CLASSIFICATION_TYPE":"U","NORAD_CAT_ID":62678,"ELEMENT_SET_NO":999,"REV_AT_EPOCH":12875,"BSTAR":0.00050869214,"MEAN_MOTION_DOT":0.00013996,"MEAN_MOTION_DDOT":0},{"OBJECT_NAME":"FLOCK 4G-30","OBJECT_ID":"2025-009BY","EPOCH":"2026-04-26T17:09:31.359456","MEAN_MOTION":15.28610033,"ECCENTRICITY":0.00054491,"INCLINATION":97.3931,"RA_OF_ASC_NODE":198.2324,"ARG_OF_PERICENTER":148.6481,"MEAN_ANOMALY":211.5084,"EPHEMERIS_TYPE":0,"CLASSIFICATION_TYPE":"U","NORAD_CAT_ID":62679,"ELEMENT_SET_NO":999,"REV_AT_EPOCH":12867,"BSTAR":0.0016633327,"MEAN_MOTION_DOT":0.00046468,"MEAN_MOTION_DDOT":0},{"OBJECT_NAME":"FLOCK 4G-18","OBJECT_ID":"2025-009BZ","EPOCH":"2026-04-27T04:19:58.307808","MEAN_MOTION":15.28340842,"ECCENTRICITY":0.00065233,"INCLINATION":97.4018,"RA_OF_ASC_NODE":199.1617,"ARG_OF_PERICENTER":141.245,"MEAN_ANOMALY":218.9259,"EPHEMERIS_TYPE":0,"CLASSIFICATION_TYPE":"U","NORAD_CAT_ID":62680,"ELEMENT_SET_NO":999,"REV_AT_EPOCH":12874,"BSTAR":0.00050428284,"MEAN_MOTION_DOT":0.00013864,"MEAN_MOTION_DDOT":0},{"OBJECT_NAME":"FLOCK 4G-17","OBJECT_ID":"2025-009CA","EPOCH":"2026-04-27T11:30:28.235808","MEAN_MOTION":15.28508541,"ECCENTRICITY":0.0005933,"INCLINATION":97.3931,"RA_OF_ASC_NODE":199.1776,"ARG_OF_PERICENTER":143.2334,"MEAN_ANOMALY":216.9314,"EPHEMERIS_TYPE":0,"CLASSIFICATION_TYPE":"U","NORAD_CAT_ID":62681,"ELEMENT_SET_NO":999,"REV_AT_EPOCH":12880,"BSTAR":0.00047438,"MEAN_MOTION_DOT":0.00013102,"MEAN_MOTION_DDOT":0},{"OBJECT_NAME":"FLOCK 4G-33","OBJECT_ID":"2025-009CE","EPOCH":"2026-04-27T11:12:07.281216","MEAN_MOTION":15.24845535,"ECCENTRICITY":0.0006835,"INCLINATION":97.3951,"RA_OF_ASC_NODE":197.9425,"ARG_OF_PERICENTER":138.8471,"MEAN_ANOMALY":221.3283,"EPHEMERIS_TYPE":0,"CLASSIFICATION_TYPE":"U","NORAD_CAT_ID":62685,"ELEMENT_SET_NO":999,"REV_AT_EPOCH":7107,"BSTAR":0.00030901,"MEAN_MOTION_DOT":7.61e-5,"MEAN_MOTION_DDOT":0}]
